SAKHACUBE-CHOLBON (RS-*)
1 67290U 25313AU  26011.95082782  .00012589  00000+0  56298-3 0  9996
2 67290  97.4115  89.1928 0009970 178.1550 181.9725 15.21400801  2199
2025-313AV              
1 67291U 25313AV  26011.95050354  .00014029  00000+0  62592-3 0  9992
2 67291  97.4114  89.1933 0009892 178.1315 181.9960 15.21455734  2193
SITRO-AIS-64            
1 67292U 25313AW  26011.94995942  .00013078  00000+0  58313-3 0  9992
2 67292  97.4118  89.1951 0009640 177.7796 182.3485 15.21495199  2193
2025-313AX              
1 67293U 25313AX  26011.95073790  .00005788  00000+0  26133-3 0  9996
2 67293  97.4115  89.1907 0011564 168.9980 191.1511 15.21308168  2194
SITRO-AIS-63            
1 67294U 25313AY  26011.94955877  .00013295  00000+0  59202-3 0  9996
2 67294  97.4121  89.1957 0009552 177.8954 182.2323 15.21537780  2197
ZORKIY-2M-5             
1 67295U 25313AZ  26011.94953479  .00011018  00000+0  49147-3 0  9991
2 67295  97.4114  89.1924 0011110 168.8438 191.3046 15.21512725  2199
SITRO-AIS-62            
1 67296U 25313BA  26011.88332868  .00012743  00000+0  56686-3 0  9990
2 67296  97.4126  89.1325 0009315 178.6653 181.4609 15.21584175  2182
SITRO-AIS-61            
1 67297U 25313BB  26011.94856164  .00013082  00000+0  58082-3 0  9997
2 67297  97.4128  89.1978 0008992 180.3070 179.8162 15.21648411  2192
TIANHUI 7               
1 67300U 25314A   26008.13994258  .00002013  00000+0  82629-4 0  9994
2 67300  97.4205  85.2818 0001392 102.4970 257.6424 15.25383404  1382
CZ-4B R/B               
1 67301U 25314B   26011.73217395  .00107403  54796-5  53205-3 0  9998
2 67301  97.3745  89.5665 0140820 331.7945  27.5738 15.68810160  1931
2025-315A               
1 67302U 25315A   26009.84865412 -.00000057  00000+0  00000+0 0  9990
2 67302   2.9981  99.3155 0001257 300.6872  87.9274  1.00271810   111
CZ-7A R/B               
1 67303U 25315B   26011.75687604  .00116546  18981-6  28474-2 0  9991
2 67303  19.5501  95.7266 7202775 187.8380 147.0977  2.42634138   291
