CCSDS_OMM_VERS = 2.0
CREATION_DATE  = 
ORIGINATOR     = 

OBJECT_NAME    = SAKHACUBE-CHOLBON (RS-18S)
OBJECT_ID      = 2025-313AU
CENTER_NAME    = EARTH
REF_FRAME      = TEME
TIME_SYSTEM    = UTC
MEAN_ELEMENT_THEORY = SGP/SGP4

EPOCH          = 2026-01-11T22:49:11.523648
MEAN_MOTION    = 15.21400801
ECCENTRICITY   = .00099705
INCLINATION    = 97.4115
RA_OF_ASC_NODE = 89.1928
ARG_OF_PERICENTER = 178.1550
MEAN_ANOMALY   = 181.9725

EPHEMERIS_TYPE = 0
CLASSIFICATION_TYPE = U
NORAD_CAT_ID   = 67290
ELEMENT_SET_NO = 999
REV_AT_EPOCH   = 219
BSTAR          = .56297896E-3
MEAN_MOTION_DOT = .12589E-3
MEAN_MOTION_DDOT = 0

CCSDS_OMM_VERS = 2.0
CREATION_DATE  = 
ORIGINATOR     = 

OBJECT_NAME    = 2025-313AV
OBJECT_ID      = 2025-313AV
CENTER_NAME    = EARTH
REF_FRAME      = TEME
TIME_SYSTEM    = UTC
MEAN_ELEMENT_THEORY = SGP/SGP4

EPOCH          = 2026-01-11T22:48:43.505856
MEAN_MOTION    = 15.21455734
ECCENTRICITY   = .00098925
INCLINATION    = 97.4114
RA_OF_ASC_NODE = 89.1933
ARG_OF_PERICENTER = 178.1315
MEAN_ANOMALY   = 181.9960

EPHEMERIS_TYPE = 0
CLASSIFICATION_TYPE = U
NORAD_CAT_ID   = 67291
ELEMENT_SET_NO = 999
REV_AT_EPOCH   = 219
BSTAR          = .6259171E-3
MEAN_MOTION_DOT = .14029E-3
MEAN_MOTION_DDOT = 0

CCSDS_OMM_VERS = 2.0
CREATION_DATE  = 
ORIGINATOR     = 

OBJECT_NAME    = SITRO-AIS-64
OBJECT_ID      = 2025-313AW
CENTER_NAME    = EARTH
REF_FRAME      = TEME
TIME_SYSTEM    = UTC
MEAN_ELEMENT_THEORY = SGP/SGP4

EPOCH          = 2026-01-11T22:47:56.493888
MEAN_MOTION    = 15.21495199
ECCENTRICITY   = .00096405
INCLINATION    = 97.4118
RA_OF_ASC_NODE = 89.1951
ARG_OF_PERICENTER = 177.7796
MEAN_ANOMALY   = 182.3485

EPHEMERIS_TYPE = 0
CLASSIFICATION_TYPE = U
NORAD_CAT_ID   = 67292
ELEMENT_SET_NO = 999
REV_AT_EPOCH   = 219
BSTAR          = .58313077E-3
MEAN_MOTION_DOT = .13078E-3
MEAN_MOTION_DDOT = 0

CCSDS_OMM_VERS = 2.0
CREATION_DATE  = 
ORIGINATOR     = 

OBJECT_NAME    = 2025-313AX
OBJECT_ID      = 2025-313AX
CENTER_NAME    = EARTH
REF_FRAME      = TEME
TIME_SYSTEM    = UTC
MEAN_ELEMENT_THEORY = SGP/SGP4

EPOCH          = 2026-01-11T22:49:03.754560
MEAN_MOTION    = 15.21308168
ECCENTRICITY   = .00115646
INCLINATION    = 97.4115
RA_OF_ASC_NODE = 89.1907
ARG_OF_PERICENTER = 168.9980
MEAN_ANOMALY   = 191.1511

EPHEMERIS_TYPE = 0
CLASSIFICATION_TYPE = U
NORAD_CAT_ID   = 67293
ELEMENT_SET_NO = 999
REV_AT_EPOCH   = 219
BSTAR          = .26132577E-3
MEAN_MOTION_DOT = .5788E-4
MEAN_MOTION_DDOT = 0

CCSDS_OMM_VERS = 2.0
CREATION_DATE  = 
ORIGINATOR     = 

OBJECT_NAME    = SITRO-AIS-63
OBJECT_ID      = 2025-313AY
CENTER_NAME    = EARTH
REF_FRAME      = TEME
TIME_SYSTEM    = UTC
MEAN_ELEMENT_THEORY = SGP/SGP4

EPOCH          = 2026-01-11T22:47:21.877728
MEAN_MOTION    = 15.21537780
ECCENTRICITY   = .00095526
INCLINATION    = 97.4121
RA_OF_ASC_NODE = 89.1957
ARG_OF_PERICENTER = 177.8954
MEAN_ANOMALY   = 182.2323

EPHEMERIS_TYPE = 0
CLASSIFICATION_TYPE = U
NORAD_CAT_ID   = 67294
ELEMENT_SET_NO = 999
REV_AT_EPOCH   = 219
BSTAR          = .592023E-3
MEAN_MOTION_DOT = .13295E-3
MEAN_MOTION_DDOT = 0

CCSDS_OMM_VERS = 2.0
CREATION_DATE  = 
ORIGINATOR     = 

OBJECT_NAME    = ZORKIY-2M-5
OBJECT_ID      = 2025-313AZ
CENTER_NAME    = EARTH
REF_FRAME      = TEME
TIME_SYSTEM    = UTC
MEAN_ELEMENT_THEORY = SGP/SGP4

EPOCH          = 2026-01-11T22:47:19.805856
MEAN_MOTION    = 15.21512725
ECCENTRICITY   = .00111102
INCLINATION    = 97.4114
RA_OF_ASC_NODE = 89.1924
ARG_OF_PERICENTER = 168.8438
MEAN_ANOMALY   = 191.3046

EPHEMERIS_TYPE = 0
CLASSIFICATION_TYPE = U
NORAD_CAT_ID   = 67295
ELEMENT_SET_NO = 999
REV_AT_EPOCH   = 219
BSTAR          = .49146782E-3
MEAN_MOTION_DOT = .11018E-3
MEAN_MOTION_DDOT = 0

CCSDS_OMM_VERS = 2.0
CREATION_DATE  = 
ORIGINATOR     = 

OBJECT_NAME    = SITRO-AIS-62
OBJECT_ID      = 2025-313BA
CENTER_NAME    = EARTH
REF_FRAME      = TEME
TIME_SYSTEM    = UTC
MEAN_ELEMENT_THEORY = SGP/SGP4

EPOCH          = 2026-01-11T21:11:59.597952
MEAN_MOTION    = 15.21584175
ECCENTRICITY   = .00093151
INCLINATION    = 97.4126
RA_OF_ASC_NODE = 89.1325
ARG_OF_PERICENTER = 178.6653
MEAN_ANOMALY   = 181.4609

EPHEMERIS_TYPE = 0
CLASSIFICATION_TYPE = U
NORAD_CAT_ID   = 67296
ELEMENT_SET_NO = 999
REV_AT_EPOCH   = 218
BSTAR          = .56685781E-3
MEAN_MOTION_DOT = .12743E-3
MEAN_MOTION_DDOT = 0

CCSDS_OMM_VERS = 2.0
CREATION_DATE  = 
ORIGINATOR     = 

OBJECT_NAME    = SITRO-AIS-61
OBJECT_ID      = 2025-313BB
CENTER_NAME    = EARTH
REF_FRAME      = TEME
TIME_SYSTEM    = UTC
MEAN_ELEMENT_THEORY = SGP/SGP4

EPOCH          = 2026-01-11T22:45:55.725696
MEAN_MOTION    = 15.21648411
ECCENTRICITY   = .00089922
INCLINATION    = 97.4128
RA_OF_ASC_NODE = 89.1978
ARG_OF_PERICENTER = 180.3070
MEAN_ANOMALY   = 179.8162

EPHEMERIS_TYPE = 0
CLASSIFICATION_TYPE = U
NORAD_CAT_ID   = 67297
ELEMENT_SET_NO = 999
REV_AT_EPOCH   = 219
BSTAR          = .58082247E-3
MEAN_MOTION_DOT = .13082E-3
MEAN_MOTION_DDOT = 0

CCSDS_OMM_VERS = 2.0
CREATION_DATE  = 
ORIGINATOR     = 

OBJECT_NAME    = TIANHUI 7
OBJECT_ID      = 2025-314A
CENTER_NAME    = EARTH
REF_FRAME      = TEME
TIME_SYSTEM    = UTC
MEAN_ELEMENT_THEORY = SGP/SGP4

EPOCH          = 2026-01-08T03:21:31.038912
MEAN_MOTION    = 15.25383404
ECCENTRICITY   = .00013928
INCLINATION    = 97.4205
RA_OF_ASC_NODE = 85.2818
ARG_OF_PERICENTER = 102.4970
MEAN_ANOMALY   = 257.6424

EPHEMERIS_TYPE = 0
CLASSIFICATION_TYPE = U
NORAD_CAT_ID   = 67300
ELEMENT_SET_NO = 999
REV_AT_EPOCH   = 138
BSTAR          = .82629326E-4
MEAN_MOTION_DOT = .2013E-4
MEAN_MOTION_DDOT = 0

CCSDS_OMM_VERS = 2.0
CREATION_DATE  = 
ORIGINATOR     = 

OBJECT_NAME    = CZ-4B R/B
OBJECT_ID      = 2025-314B
CENTER_NAME    = EARTH
REF_FRAME      = TEME
TIME_SYSTEM    = UTC
MEAN_ELEMENT_THEORY = SGP/SGP4

EPOCH          = 2026-01-11T17:34:19.829280
MEAN_MOTION    = 15.68810160
ECCENTRICITY   = .01408201
INCLINATION    = 97.3745
RA_OF_ASC_NODE = 89.5665
ARG_OF_PERICENTER = 331.7945
MEAN_ANOMALY   = 27.5738

EPHEMERIS_TYPE = 0
CLASSIFICATION_TYPE = U
NORAD_CAT_ID   = 67301
ELEMENT_SET_NO = 999
REV_AT_EPOCH   = 193
BSTAR          = .53205184E-3
MEAN_MOTION_DOT = .107403E-2
MEAN_MOTION_DDOT = .5479592E-5

CCSDS_OMM_VERS = 2.0
CREATION_DATE  = 
ORIGINATOR     = 

OBJECT_NAME    = 2025-315A
OBJECT_ID      = 2025-315A
CENTER_NAME    = EARTH
REF_FRAME      = TEME
TIME_SYSTEM    = UTC
MEAN_ELEMENT_THEORY = SGP/SGP4

EPOCH          = 2026-01-09T20:22:03.715968
MEAN_MOTION    = 1.00271810
ECCENTRICITY   = .00012576
INCLINATION    = 2.9981
RA_OF_ASC_NODE = 99.3155
ARG_OF_PERICENTER = 300.6872
MEAN_ANOMALY   = 87.9274

EPHEMERIS_TYPE = 0
CLASSIFICATION_TYPE = U
NORAD_CAT_ID   = 67302
ELEMENT_SET_NO = 999
REV_AT_EPOCH   = 11
BSTAR          = 0
MEAN_MOTION_DOT = -.57E-6
MEAN_MOTION_DDOT = 0

CCSDS_OMM_VERS = 2.0
CREATION_DATE  = 
ORIGINATOR     = 

OBJECT_NAME    = CZ-7A R/B
OBJECT_ID      = 2025-315B
CENTER_NAME    = EARTH
REF_FRAME      = TEME
TIME_SYSTEM    = UTC
MEAN_ELEMENT_THEORY = SGP/SGP4

EPOCH          = 2026-01-11T18:09:54.089856
MEAN_MOTION    = 2.42634138
ECCENTRICITY   = .72027756
INCLINATION    = 19.5501
RA_OF_ASC_NODE = 95.7266
ARG_OF_PERICENTER = 187.8380
MEAN_ANOMALY   = 147.0977

EPHEMERIS_TYPE = 0
CLASSIFICATION_TYPE = U
NORAD_CAT_ID   = 67303
ELEMENT_SET_NO = 999
REV_AT_EPOCH   = 29
BSTAR          = .28474227E-2
MEAN_MOTION_DOT = .116546E-2
MEAN_MOTION_DDOT = .189808E-6

